NORAD_CAT_ID,OBJECT_NAME,OBJECT_TYPE,EPOCH,MEAN_MOTION,ECCENTRICITY,INCLINATION,RA_OF_ASC_NODE,ARG_OF_PERICENTER,MEAN_ANOMALY,BSTAR,MEAN_MOTION_DOT,MEAN_MOTION_DDOT,TLE_LINE0,TLE_LINE1,TLE_LINE2,SEMIMAJOR_AXIS,PERIOD,APOGEE,PERIGEE,DECAYED
52674.0,STARLINK-3936,PAYLOAD,2022-12-14 14:09:58,15.08835976,0.0002283,53.2166,56.2881,44.4393,315.6782,4.6605e-05,4.53e-06,0.0,0 STARLINK-3936,1 52674U 22053U   22348.59025508  .00000453  00000-0  46605-4 0  9996,2 52674  53.2166  56.2881 0002283  44.4393 315.6782 15.08835976 32741,6917.893,95.438,541.337,538.178,0.0
52674.0,STARLINK-3936,PAYLOAD,2022-12-15 10:49:58,15.08843562,0.0002357,53.2163,52.4227,31.1898,328.9234,0.00016692,2.37e-05,0.0,0 STARLINK-3936,1 52674U 22053U   22349.45137132  .00002370  00000-0  16692-3 0  9991,2 52674  53.2163  52.4227 0002357  31.1898 328.9234 15.08843562 32430,6917.87,95.437,541.365,538.104,0.0
52674.0,STARLINK-3936,PAYLOAD,2022-12-15 14:00:44,15.08847321,0.0002338,53.2173,51.8283,28.7519,331.3601,0.00017818,2.549e-05,0.0,0 STARLINK-3936,1 52674U 22053U   22349.58384588  .00002549  00000-0  17818-3 0  9993,2 52674  53.2173  51.8283 0002338  28.7519 331.3601 15.08847321 32890,6917.858,95.437,541.34,538.106,0.0
52674.0,STARLINK-3936,PAYLOAD,2022-12-15 15:36:07,15.08847518,0.0002378,53.2162,51.5303,29.9021,330.2107,0.00021389,3.118e-05,0.0,0 STARLINK-3936,1 52674U 22053U   22349.65008907  .00003118  00000-0  21389-3 0  9990,2 52674  53.2162  51.5303 0002378  29.9021 330.2107 15.08847518 32902,6917.857,95.437,541.367,538.077,0.0
52674.0,STARLINK-3936,PAYLOAD,2022-12-16 13:51:31,15.08839494,0.000237,53.2176,47.368,28.7766,331.3357,0.00013661,1.887e-05,0.0,0 STARLINK-3936,1 52674U 22053U   22350.57745044  .00001887  00000-0  13661-3 0  9998,2 52674  53.2176  47.3680 0002370  28.7766 331.3357 15.08839494 33042,6917.882,95.438,541.386,538.107,0.0
52674.0,STARLINK-3936,PAYLOAD,2022-12-16 15:26:55,15.08832914,0.0002339,53.2175,47.0706,27.9218,332.1899,6.5367e-05,7.52e-06,0.0,0 STARLINK-3936,1 52674U 22053U   22350.64369684  .00000752  00000-0  65367-4 0  9999,2 52674  53.2175  47.0706 0002339  27.9218 332.1899 15.08832914 32617,6917.901999999999,95.438,541.385,538.149,0.0
52674.0,STARLINK-3936,PAYLOAD,2022-12-17 10:31:33,15.08835607,0.0002392,53.2173,43.5017,29.5463,330.5664,-2.426e-05,-6.74e-06,0.0,0 STARLINK-3936,1 52674U 22053U   22351.43857846 -.00000674  00000-0 -24260-4 0  9991,2 52674  53.2173  43.5017 0002392  29.5463 330.5664 15.08835607 33176,6917.894,95.438,541.414,538.104,0.0
52674.0,STARLINK-3936,PAYLOAD,2022-12-17 20:03:51,15.08845034,0.0002454,53.2174,41.7175,30.03,330.0832,3.1809e-05,2.18e-06,0.0,0 STARLINK-3936,1 52674U 22053U   22351.83601204  .00000218  00000-0  31809-4 0  9999,2 52674  53.2174  41.7175 0002454  30.0300 330.0832 15.08845034 33232,6917.865,95.437,541.428,538.0319999999998,0.0
52674.0,STARLINK-3936,PAYLOAD,2022-12-18 10:22:20,15.08835441,0.0002488,53.2177,39.0426,29.9035,330.2099,3.3861e-05,2.5e-06,0.0,0 STARLINK-3936,1 52674U 22053U   22352.43218100  .00000250  00000-0  33861-4 0  9991,2 52674  53.2177  39.0426 0002488  29.9035 330.2099 15.08835441 32881,6917.894,95.438,541.48,538.038,0.0
52674.0,STARLINK-3936,PAYLOAD,2022-12-18 11:57:43,15.08832559,0.0002489,53.2181,38.7458,29.0748,331.0382,3.2424e-05,2.28e-06,0.0,0 STARLINK-3936,1 52674U 22053U   22352.49842332  .00000228  00000-0  32424-4 0  9996,2 52674  53.2181  38.7458 0002489  29.0748 331.0382 15.08832559 33332,6917.903,95.438,541.49,538.0459999999998,0.0
52674.0,STARLINK-3936,PAYLOAD,2022-12-18 19:54:40,15.08821764,0.0002582,53.2175,37.2568,26.7612,333.3513,2.8068000000000013e-05,1.58e-06,0.0,0 STARLINK-3936,1 52674U 22053U   22352.82963301  .00000158  00000-0  28068-4 0  9994,2 52674  53.2175  37.2568 0002582  26.7612 333.3513 15.08821764 33381,6917.936,95.439,541.587,538.015,0.0
52674.0,STARLINK-3936,PAYLOAD,2022-12-19 07:02:21,15.08832224,0.000271,53.2167,35.1737,23.5685,336.5431,0.00011633,1.563e-05,0.0,0 STARLINK-3936,1 52674U 22053U   22353.29330851  .00001563  00000-0  11633-3 0  9994,2 52674  53.2167  35.1737 0002710  23.5685 336.5431 15.08832224 33012,6917.904,95.438,541.644,537.894,0.0
52674.0,STARLINK-3936,PAYLOAD,2022-12-19 19:45:25,15.08855453,0.000263,53.2169,32.797,29.7719,330.3422,0.00038053,5.776e-05,0.0,0 STARLINK-3936,1 52674U 22053U   22353.82321636  .00005776  00000-0  38053-3 0  9999,2 52674  53.2169  32.7970 0002630  29.7719 330.3422 15.08855453 33531,6917.833000000001,95.437,541.518,537.879,0.0
52674.0,STARLINK-3936,PAYLOAD,2022-12-20 11:39:17,15.08851872,0.0002581,53.2161,29.8239,27.8001,332.3129,0.00023611,3.473e-05,0.0,0 STARLINK-3936,1 52674U 22053U   22354.48561546  .00003473  00000-0  23611-3 0  9994,2 52674  53.2161  29.8239 0002581  27.8001 332.3129 15.08851872 33634,6917.844,95.437,541.495,537.924,0.0
52674.0,STARLINK-3936,PAYLOAD,2022-12-20 14:50:03,15.08851423,0.0002566,53.2163,29.2294,29.2823,330.8312,0.00024496,3.614e-05,0.0,0 STARLINK-3936,1 52674U 22053U   22354.61809489  .00003614  00000-0  24496-3 0  9999,2 52674  53.2163  29.2294 0002566  29.2823 330.8312 15.08851423 33215,6917.845,95.437,541.486,537.935,0.0
52674.0,STARLINK-3936,PAYLOAD,2022-12-21 01:57:45,15.08838696,0.0002837,53.2155,27.1481,35.2391,324.8788,2.0186e-05,3.3e-07,0.0,0 STARLINK-3936,1 52674U 22053U   22355.08178178  .00000033  00000-0  20186-4 0  9990,2 52674  53.2155  27.1481 0002837  35.2391 324.8788 15.08838696 33283,6917.884,95.438,541.712,537.7869999999998,0.0
52674.0,STARLINK-3936,PAYLOAD,2022-12-21 09:54:41,15.08816681,0.0002497,53.2167,25.6604,28.6181,331.4948,-0.00056322,-9.236e-05,0.0,0 STARLINK-3936,1 52674U 22053U   22355.41298598 -.00009236  00000-0 -56322-3 0  9992,2 52674  53.2167  25.6604 0002497  28.6181 331.4948 15.08816681 33339,6917.9519999999975,95.439,541.544,538.089,0.0
52674.0,STARLINK-3936,PAYLOAD,2022-12-21 11:30:05,15.08820252,0.0002493,53.2169,25.3628,29.4225,330.6907,-0.00042137,-6.985e-05,0.0,0 STARLINK-3936,1 52674U 22053U   22355.47922778 -.00006985  00000-0 -42137-3 0  9999,2 52674  53.2169  25.3628 0002493  29.4225 330.6907 15.08820252 33782,6917.941,95.439,541.53,538.081,0.0
52674.0,STARLINK-3936,PAYLOAD,2022-12-21 19:27:01,15.08823111,0.0002412,53.2167,23.876,28.9088,331.2038,-0.00012119,-2.216e-05,0.0,0 STARLINK-3936,1 52674U 22053U   22355.81043133 -.00002216  00000-0 -12119-3 0  9996,2 52674  53.2167  23.8760 0002412  28.9088 331.2038 15.08823111 33398,6917.932,95.439,541.466,538.128,0.0
52674.0,STARLINK-3936,PAYLOAD,2022-12-22 11:20:53,15.08836456,0.0002639,53.216,20.9024,28.1524,331.961,0.00074147,0.00011531,0.0,0 STARLINK-3936,1 52674U 22053U   22356.47283820  .00011531  00000-0  74147-3 0  9995,2 52674  53.2160  20.9024 0002639  28.1524 331.9610 15.08836456 33939,6917.891,95.438,541.582,537.931,0.0
52674.0,STARLINK-3936,PAYLOAD,2022-12-22 12:56:16,15.08839709,0.0002606,53.2159,20.605,26.9032,333.2095,0.00093996,0.00014703,0.0,0 STARLINK-3936,1 52674U 22053U   22356.53907873  .00014703  00000-0  93996-3 0  9990,2 52674  53.2159  20.6050 0002606  26.9032 333.2095 15.08839709 33506,6917.880999999999,95.438,541.549,537.943,0.0
52674.0,STARLINK-3936,PAYLOAD,2022-12-23 08:00:53,15.08846817,0.0002645,53.2161,17.037,26.5572,333.5555,0.00032809,4.938e-05,0.0,0 STARLINK-3936,1 52674U 22053U   22357.33395675  .00004938  00000-0  32809-3 0  9995,2 52674  53.2161  17.0370 0002645  26.5572 333.5555 15.08846817 33627,6917.86,95.437,541.554,537.895,0.0
52674.0,STARLINK-3936,PAYLOAD,2022-12-23 11:11:40,15.08848824,0.0002679,53.216,16.4417,28.8233,331.2907,0.00046606,7.139e-05,0.0,0 STARLINK-3936,1 52674U 22053U   22357.46643654  .00007139  00000-0  46606-3 0  9998,2 52674  53.2160  16.4417 0002679  28.8233 331.2907 15.08848824 34084,6917.853,95.437,541.572,537.865,0.0
52674.0,STARLINK-3936,PAYLOAD,2022-12-24 11:02:26,15.08847421,0.0002707,53.2164,11.9817,29.7278,330.3868,0.00018528,2.662e-05,0.0,0 STARLINK-3936,1 52674U 22053U   22358.46003433  .00002662  00000-0  18528-3 0  9992,2 52674  53.2164  11.9817 0002707  29.7278 330.3868 15.08847421 33798,6917.858,95.437,541.595,537.85,0.0
52674.0,STARLINK-3936,PAYLOAD,2022-12-25 07:42:27,15.08842746,0.0002663,53.2167,8.1159,30.9703,329.1445,7.2744e-05,8.7e-06,0.0,0 STARLINK-3936,1 52674U 22053U   22359.32115342  .00000870  00000-0  72744-4 0  9991,2 52674  53.2167   8.1159 0002663  30.9703 329.1445 15.08842746 33923,6917.871999999999,95.437,541.5790000000002,537.895,0.0
52674.0,STARLINK-3936,PAYLOAD,2022-12-25 17:14:47,15.08830616,0.0002742,53.2161,6.3320000000000025,26.9906,333.1228,-0.00015488,-2.752e-05,0.0,0 STARLINK-3936,1 52674U 22053U   22359.71860012 -.00002752  00000-0 -15488-3 0  9999,2 52674  53.2161   6.3320 0002742  26.9906 333.1228 15.08830616 33988,6917.909000000002,95.438,541.6709999999998,537.877,0.0
52674.0,STARLINK-3936,PAYLOAD,2022-12-26 10:44:01,15.08843149,0.0002738,53.2161,3.0601,28.6458,331.4684,5.5201e-05,5.9e-06,0.0,0 STARLINK-3936,1 52674U 22053U   22360.44723492  .00000590  00000-0  55201-4 0  9995,2 52674  53.2161   3.0601 0002738  28.6458 331.4684 15.08843149 34095,6917.871,95.437,541.63,537.842,0.0
52674.0,STARLINK-3936,PAYLOAD,2022-12-27 08:59:24,15.08845559,0.0002727,53.2168,358.8972,29.7587,330.356,0.00019415,2.803e-05,0.0,0 STARLINK-3936,1 52674U 22053U   22361.37459338  .00002803  00000-0  19415-3 0  9998,2 52674  53.2168 358.8972 0002727  29.7587 330.3560 15.08845559 34679,6917.863,95.437,541.615,537.842,0.0
52674.0,STARLINK-3936,PAYLOAD,2022-12-27 16:56:19,15.08857592,0.0002787,53.2164,357.4096,27.2956,332.8183,0.00031004,4.652e-05,0.0,0 STARLINK-3936,1 52674U 22053U   22361.70578601  .00004652  00000-0  31004-3 0  9992,2 52674  53.2164 357.4096 0002787  27.2956 332.8183 15.08857592 34281,6917.8269999999975,95.436,541.62,537.764,0.0
